{
  "type": "FeatureCollection",
  "features": [
    {
      "type": "Feature",
      "properties": {
        "norad_id": 43262,
        "name": "GAOFEN-1 04",
        "group": "resource",
        "lat": -28.454378682819428,
        "lon": 62.41352688849362,
        "alt_km": 646.4727574229682,
        "timestamp": "2025-12-26T03:50:11.745388+00:00",
        "meta_object_name": "GAOFEN-1 04",
        "meta_object_id": "2018-031D",
        "meta_epoch": "2025-12-25T19:50:02.377824",
        "meta_mean_motion": 14.7643226,
        "meta_eccentricity": 5.21e-05,
        "meta_inclination": 98.0786,
        "meta_ra_of_asc_node": 57.6655,
        "meta_arg_of_pericenter": 62.5285,
        "meta_mean_anomaly": 297.5977,
        "meta_ephemeris_type": 0,
        "meta_classification_type": "U",
        "meta_norad_cat_id": 43262,
        "meta_element_set_no": 999,
        "meta_rev_at_epoch": 41710,
        "meta_bstar": 0.00013837,
        "meta_mean_motion_dot": 9.1e-06,
        "meta_mean_motion_ddot": 0,
        "tle_line1": "1 43262U 18031D   25359.82641641  .00000910  00000+0  13837-3 0  9990",
        "tle_line2": "2 43262  98.0786  57.6655 0000521  62.5285 297.5977 14.76432260417101"
      },
      "geometry": {
        "type": "Point",
        "coordinates": [
          62.41352688849362,
          -28.454378682819428
        ]
      }
    },
    {
      "type": "Feature",
      "properties": {
        "norad_id": 43437,
        "name": "SENTINEL-3B",
        "group": "resource",
        "lat": -77.26547081961867,
        "lon": -157.0392908125858,
        "alt_km": 811.095843489009,
        "timestamp": "2025-12-26T03:50:11.745405+00:00",
        "meta_object_name": "SENTINEL-3B",
        "meta_object_id": "2018-039A",
        "meta_epoch": "2025-12-25T18:12:12.174336",
        "meta_mean_motion": 14.26739017,
        "meta_eccentricity": 0.0001586,
        "meta_inclination": 98.6249,
        "meta_ra_of_asc_node": 64.7561,
        "meta_arg_of_pericenter": 88.7501,
        "meta_mean_anomaly": 271.3861,
        "meta_ephemeris_type": 0,
        "meta_classification_type": "U",
        "meta_norad_cat_id": 43437,
        "meta_element_set_no": 999,
        "meta_rev_at_epoch": 39939,
        "meta_bstar": 7.9528e-05,
        "meta_mean_motion_dot": 1.49e-06,
        "meta_mean_motion_ddot": 0,
        "tle_line1": "1 43437U 18039A   25359.75847424  .00000149  00000+0  79528-4 0  9995",
        "tle_line2": "2 43437  98.6249  64.7561 0001586  88.7501 271.3861 14.26739017399390"
      },
      "geometry": {
        "type": "Point",
        "coordinates": [
          -157.0392908125858,
          -77.26547081961867
        ]
      }
    },
    {
      "type": "Feature",
      "properties": {
        "norad_id": 43461,
        "name": "GAOFEN-5 01",
        "group": "resource",
        "lat": 72.31916733278923,
        "lon": -64.37892407311014,
        "alt_km": 685.1960602987374,
        "timestamp": "2025-12-26T03:50:11.745417+00:00",
        "meta_object_name": "GAOFEN-5 01",
        "meta_object_id": "2018-043A",
        "meta_epoch": "2025-12-25T20:55:11.303040",
        "meta_mean_motion": 14.60423654,
        "meta_eccentricity": 5.49e-05,
        "meta_inclination": 98.4347,
        "meta_ra_of_asc_node": 323.0695,
        "meta_arg_of_pericenter": 234.7022,
        "meta_mean_anomaly": 125.4127,
        "meta_ephemeris_type": 0,
        "meta_classification_type": "U",
        "meta_norad_cat_id": 43461,
        "meta_element_set_no": 999,
        "meta_rev_at_epoch": 40639,
        "meta_bstar": 0.00011249,
        "meta_mean_motion_dot": 4.96e-06,
        "meta_mean_motion_ddot": 0,
        "tle_line1": "1 43461U 18043A   25359.87165860  .00000496  00000+0  11249-3 0  9997",
        "tle_line2": "2 43461  98.4347 323.0695 0000549 234.7022 125.4127 14.60423654406390"
      },
      "geometry": {
        "type": "Point",
        "coordinates": [
          -64.37892407311014,
          72.31916733278923
        ]
      }
    },
    {
      "type": "Feature",
      "properties": {
        "norad_id": 43484,
        "name": "GAOFEN-6",
        "group": "resource",
        "lat": 50.2756292925075,
        "lon": -106.52878680963602,
        "alt_km": 637.8513164920114,
        "timestamp": "2025-12-26T03:50:11.745427+00:00",
        "meta_object_name": "GAOFEN-6",
        "meta_object_id": "2018-048A",
        "meta_epoch": "2025-12-25T20:44:59.275680",
        "meta_mean_motion": 14.76587742,
        "meta_eccentricity": 0.00125,
        "meta_inclination": 97.801,
        "meta_ra_of_asc_node": 63.6895,
        "meta_arg_of_pericenter": 24.5322,
        "meta_mean_anomaly": 335.6481,
        "meta_ephemeris_type": 0,
        "meta_classification_type": "U",
        "meta_norad_cat_id": 43484,
        "meta_element_set_no": 999,
        "meta_rev_at_epoch": 40781,
        "meta_bstar": 9.0786e-05,
        "meta_mean_motion_dot": 5.85e-06,
        "meta_mean_motion_ddot": 0,
        "tle_line1": "1 43484U 18048A   25359.86457495  .00000585  00000+0  90786-4 0  9997",
        "tle_line2": "2 43484  97.8010  63.6895 0012500  24.5322 335.6481 14.76587742407814"
      },
      "geometry": {
        "type": "Point",
        "coordinates": [
          -106.52878680963602,
          50.2756292925075
        ]
      }
    },
    {
      "type": "Feature",
      "properties": {
        "norad_id": 43585,
        "name": "GAOFEN-11 01",
        "group": "resource",
        "lat": -27.793735643430562,
        "lon": -120.81232261085788,
        "alt_km": 421.7335439802455,
        "timestamp": "2025-12-26T03:50:11.745438+00:00",
        "meta_object_name": "GAOFEN-11 01",
        "meta_object_id": "2018-063A",
        "meta_epoch": "2025-12-25T20:44:32.840736",
        "meta_mean_motion": 15.49580361,
        "meta_eccentricity": 0.000388,
        "meta_inclination": 97.1535,
        "meta_ra_of_asc_node": 62.6903,
        "meta_arg_of_pericenter": 245.3242,
        "meta_mean_anomaly": 114.7606,
        "meta_ephemeris_type": 0,
        "meta_classification_type": "U",
        "meta_norad_cat_id": 43585,
        "meta_element_set_no": 999,
        "meta_rev_at_epoch": 41345,
        "meta_bstar": 0.00017692,
        "meta_mean_motion_dot": 9.681e-05,
        "meta_mean_motion_ddot": 0,
        "tle_line1": "1 43585U 18063A   25359.86426899  .00009681  00000+0  17692-3 0  9990",
        "tle_line2": "2 43585  97.1535  62.6903 0003880 245.3242 114.7606 15.49580361413458"
      },
      "geometry": {
        "type": "Point",
        "coordinates": [
          -120.81232261085788,
          -27.793735643430562
        ]
      }
    },
    {
      "type": "Feature",
      "properties": {
        "norad_id": 43613,
        "name": "ICESAT-2",
        "group": "resource",
        "lat": 0.6706890960202446,
        "lon": -115.66448105640173,
        "alt_km": 484.76233293935,
        "timestamp": "2025-12-26T03:50:11.745450+00:00",
        "meta_object_name": "ICESAT-2",
        "meta_object_id": "2018-070A",
        "meta_epoch": "2025-12-25T19:58:33.964320",
        "meta_mean_motion": 15.28252155,
        "meta_eccentricity": 0.0003134,
        "meta_inclination": 92.0035,
        "meta_ra_of_asc_node": 244.2707,
        "meta_arg_of_pericenter": 109.3306,
        "meta_mean_anomaly": 250.8283,
        "meta_ephemeris_type": 0,
        "meta_classification_type": "U",
        "meta_norad_cat_id": 43613,
        "meta_element_set_no": 999,
        "meta_rev_at_epoch": 40598,
        "meta_bstar": 0.00048488,
        "meta_mean_motion_dot": 0.00013349,
        "meta_mean_motion_ddot": 0,
        "tle_line1": "1 43613U 18070A   25359.83233755  .00013349  00000+0  48488-3 0  9997",
        "tle_line2": "2 43613  92.0035 244.2707 0003134 109.3306 250.8283 15.28252155405987"
      },
      "geometry": {
        "type": "Point",
        "coordinates": [
          -115.66448105640173,
          0.6706890960202446
        ]
      }
    },
    {
      "type": "Feature",
      "properties": {
        "norad_id": 43719,
        "name": "HYSIS",
        "group": "resource",
        "lat": -80.57807870984104,
        "lon": -174.95767997648827,
        "alt_km": 641.3315837124692,
        "timestamp": "2025-12-26T03:50:11.745461+00:00",
        "meta_object_name": "HYSIS",
        "meta_object_id": "2018-096A",
        "meta_epoch": "2025-12-25T20:08:43.377216",
        "meta_mean_motion": 14.78679666,
        "meta_eccentricity": 8.18e-05,
        "meta_inclination": 98.0076,
        "meta_ra_of_asc_node": 62.7521,
        "meta_arg_of_pericenter": 54.7799,
        "meta_mean_anomaly": 305.3488,
        "meta_ephemeris_type": 0,
        "meta_classification_type": "U",
        "meta_norad_cat_id": 43719,
        "meta_element_set_no": 999,
        "meta_rev_at_epoch": 38180,
        "meta_bstar": 0.00017154,
        "meta_mean_motion_dot": 1.205e-05,
        "meta_mean_motion_ddot": 0,
        "tle_line1": "1 43719U 18096A   25359.83939094  .00001205  00000+0  17154-3 0  9995",
        "tle_line2": "2 43719  98.0076  62.7521 0000818  54.7799 305.3488 14.78679666381808"
      },
      "geometry": {
        "type": "Point",
        "coordinates": [
          -174.95767997648827,
          -80.57807870984104
        ]
      }
    }
  ]
}